NORAD_CAT_ID,OBJECT_NAME,OBJECT_TYPE,EPOCH,MEAN_MOTION,ECCENTRICITY,INCLINATION,RA_OF_ASC_NODE,ARG_OF_PERICENTER,MEAN_ANOMALY,BSTAR,MEAN_MOTION_DOT,MEAN_MOTION_DDOT,TLE_LINE0,TLE_LINE1,TLE_LINE2,SEMIMAJOR_AXIS,PERIOD,APOGEE,PERIGEE,DECAYED
53250.0,STARLINK-4059,PAYLOAD,2023-11-01 17:05:21,15.08840041,0.0001318,53.2162,90.2204,94.6119,265.5024,0.00016438,2.329e-05,0.0,0 STARLINK-4059,1 53250U 22086J   23305.71205646  .00002329  00000-0  16438-3 0  9998,2 53250  53.2162  90.2204 0001318  94.6119 265.5024 15.08840041 71403,6917.88,95.438,540.657,538.833,0.0
53250.0,STARLINK-4059,PAYLOAD,2023-11-02 12:09:59,15.08836534,0.0001514,53.2167,86.6515,81.1602,278.9562,-1.4857e-05,-5.24e-06,0.0,0 STARLINK-4059,1 53250U 22086J   23306.50693947 -.00000524  00000-0 -14857-4 0  9992,2 53250  53.2167  86.6515 0001514  81.1602 278.9562 15.08836534 71326,6917.891,95.438,540.803,538.709,0.0
53250.0,STARLINK-4059,PAYLOAD,2023-11-02 13:45:22,15.08835845,0.0001467,53.2168,86.3541,81.3838,278.732,4.1448e-05,3.72e-06,0.0,0 STARLINK-4059,1 53250U 22086J   23306.57317995  .00000372  00000-0  41448-4 0  9990,2 53250  53.2168  86.3541 0001467  81.3838 278.7320 15.08835845 71530,6917.893,95.438,540.773,538.743,0.0
53250.0,STARLINK-4059,PAYLOAD,2023-11-02 18:31:31,15.0885395,0.0001431,53.2171,85.4626,73.0514,287.0635,2.5055e-05,1.11e-06,0.0,0 STARLINK-4059,1 53250U 22086J   23306.77189159  .00000111  00000-0  25055-4 0  9998,2 53250  53.2171  85.4626 0001431  73.0514 287.0635 15.08853950 71368,6917.838,95.437,540.693,538.713,0.0
53250.0,STARLINK-4059,PAYLOAD,2023-11-03 02:28:27,15.08837939,0.00013,53.217,83.9756,89.9647,270.1494,5.751e-05,6.27e-06,0.0,0 STARLINK-4059,1 53250U 22086J   23307.10310060  .00000627  00000-0  57510-4 0  9996,2 53250  53.2170  83.9756 0001300  89.9647 270.1494 15.08837939 71413,6917.887,95.438,540.651,538.852,0.0
53250.0,STARLINK-4059,PAYLOAD,2023-11-03 15:11:32,15.08841263,0.0001192,53.2176,81.5965,83.1197,276.993,2.8573e-05,1.67e-06,0.0,0 STARLINK-4059,1 53250U 22086J   23307.63301977  .00000167  00000-0  28573-4 0  9997,2 53250  53.2176  81.5965 0001192  83.1197 276.9930 15.08841263 71694,6917.877,95.437,540.566,538.917,0.0
53250.0,STARLINK-4059,PAYLOAD,2023-11-03 18:22:18,15.08848955,0.0001391,53.2174,81.0016,87.9734,272.1418,0.00010241,1.343e-05,0.0,0 STARLINK-4059,1 53250U 22086J   23307.76549313  .00001343  00000-0  10241-3 0  9998,2 53250  53.2174  81.0016 0001391  87.9734 272.1418 15.08848955 71519,6917.853,95.437,540.68,538.756,0.0
53250.0,STARLINK-4059,PAYLOAD,2023-11-04 02:19:14,15.08840384,0.0001357,53.2178,79.5146,88.0848,272.03,9.8896e-06,-1.31e-06,0.0,0 STARLINK-4059,1 53250U 22086J   23308.09669987 -.00000131  00000-0  98896-5 0  9994,2 53250  53.2178  79.5146 0001357  88.0848 272.0300 15.08840384 71561,6917.879,95.438,540.683,538.805,0.0
53250.0,STARLINK-4059,PAYLOAD,2023-11-04 15:02:20,15.08838154,0.0001406,53.2167,77.1363,90.855,269.2603,7.0785e-05,8.39e-06,0.0,0 STARLINK-4059,1 53250U 22086J   23308.62662144  .00000839  00000-0  70785-4 0  9991,2 53250  53.2167  77.1363 0001406  90.8550 269.2603 15.08838154 71847,6917.886,95.438,540.724,538.778,0.0
53250.0,STARLINK-4059,PAYLOAD,2023-11-05 11:42:19,15.08849641,0.0001248,53.2166,73.2713,92.3214,267.7921,0.00017458,2.492e-05,0.0,0 STARLINK-4059,1 53250U 22086J   23309.48773137  .00002492  00000-0  17458-3 0  9995,2 53250  53.2166  73.2713 0001248  92.3214 267.7921 15.08849641 71771,6917.851,95.437,540.579,538.853,0.0
53250.0,STARLINK-4059,PAYLOAD,2023-11-05 14:53:06,15.08852515,0.0001327,53.2169,72.6751,89.8337,270.2807,0.0002635,3.91e-05,0.0,0 STARLINK-4059,1 53250U 22086J   23309.62021275  .00003910  00000-0  26350-3 0  9997,2 53250  53.2169  72.6751 0001327  89.8337 270.2807 15.08852515 71994,6917.842,95.437,540.625,538.789,0.0
53250.0,STARLINK-4059,PAYLOAD,2023-11-06 11:33:07,15.08823728,0.000112,53.2159,68.8106,68.9099,291.2013,-0.00019641,-3.411e-05,0.0,0 STARLINK-4059,1 53250U 22086J   23310.48133873 -.00003411  00000-0 -19641-3 0  9994,2 53250  53.2159  68.8106 0001120  68.9099 291.2013 15.08823728 71927,6917.93,95.439,540.57,539.02,0.0
53250.0,STARLINK-4059,PAYLOAD,2023-11-06 13:08:31,15.08786331,0.0001542,53.2157,68.5133,63.9905,296.1246,-0.0010973,-0.00017683,0.0,0 STARLINK-4059,1 53250U 22086J   23310.54759195 -.00017683  00000-0 -10973-2 0  9996,2 53250  53.2157  68.5133 0001542  63.9905 296.1246 15.08786331 72135,6918.044,95.441,540.976,538.843,0.0
53250.0,STARLINK-4059,PAYLOAD,2023-11-06 14:43:54,15.08790457,0.0001654,53.2159,68.2155,67.969,292.1478,-0.0011402,-0.00018364,0.0,0 STARLINK-4059,1 53250U 22086J   23310.61382381 -.00018364  00000-0 -11402-2 0  9998,2 53250  53.2159  68.2155 0001654  67.9690 292.1478 15.08790457 71942,6918.032,95.441,541.041,538.753,0.0
53250.0,STARLINK-4059,PAYLOAD,2023-11-07 11:23:57,15.08796178,0.0001924,53.2176,64.3488,39.9717,320.1417,-0.00046998,-7.751e-05,0.0,0 STARLINK-4059,1 53250U 22086J   23311.47497127 -.00007751  00000-0 -46998-3 0  9995,2 53250  53.2176  64.3488 0001924  39.9717 320.1417 15.08796178 72072,6918.014,95.44,541.21,538.548,0.0
53250.0,STARLINK-4059,PAYLOAD,2023-11-07 14:34:43,15.08835481,0.0001505,53.2164,63.7546,68.9252,291.1901,0.00038883,5.905e-05,0.0,0 STARLINK-4059,1 53250U 22086J   23311.60744320  .00005905  00000-0  38883-3 0  9991,2 53250  53.2164  63.7546 0001505  68.9252 291.1901 15.08835481 72298,6917.894,95.438,540.8,538.718,0.0
53250.0,STARLINK-4059,PAYLOAD,2023-11-08 12:50:06,15.08847576,0.0001479,53.2176,59.5904,80.4845,279.6314,0.00086221,0.00013464,0.0,0 STARLINK-4059,1 53250U 22086J   23312.53480171  .00013464  00000-0  86221-3 0  9993,2 53250  53.2176  59.5904 0001479  80.4845 279.6314 15.08847576 72432,6917.857,95.437,540.745,538.699,0.0
53250.0,STARLINK-4059,PAYLOAD,2023-11-08 23:57:48,15.08849654,0.0001579,53.2179,57.5106,78.449,281.6679,0.00062821,9.727e-05,0.0,0 STARLINK-4059,1 53250U 22086J   23312.99848132  .00009727  00000-0  62821-3 0  9995,2 53250  53.2179  57.5106 0001579  78.4490 281.6679 15.08849654 72303,6917.851,95.437,540.808,538.624,0.0
53250.0,STARLINK-4059,PAYLOAD,2023-11-09 14:16:16,15.08861103,0.0001415,53.2172,54.8351,71.4964,288.6182,0.00017271,2.463e-05,0.0,0 STARLINK-4059,1 53250U 22086J   23313.59462979  .00002463  00000-0  17271-3 0  9992,2 53250  53.2172  54.8351 0001415  71.4964 288.6182 15.08861103 72596,6917.816,95.436,540.66,538.702,0.0
53250.0,STARLINK-4059,PAYLOAD,2023-11-09 23:48:34,15.08853803,0.0001438,53.218,53.0504,85.0403,275.0753,-1.5766e-05,-5.39e-06,0.0,0 STARLINK-4059,1 53250U 22086J   23313.99206869 -.00000539  00000-0 -15766-4 0  9992,2 53250  53.2180  53.0504 0001438  85.0403 275.0753 15.08853803 72457,6917.838,95.437,540.698,538.708,0.0
53250.0,STARLINK-4059,PAYLOAD,2023-11-10 10:56:17,15.08836457,0.0001497,53.2167,50.9714,93.2126,266.9037,0.00013226,1.817e-05,0.0,0 STARLINK-4059,1 53250U 22086J   23314.45575763  .00001817  00000-0  13226-3 0  9992,2 53250  53.2167  50.9714 0001497  93.2126 266.9037 15.08836457 72527,6917.891,95.438,540.792,538.721,0.0
53250.0,STARLINK-4059,PAYLOAD,2023-11-10 14:07:02,15.08849695,0.0001543,53.2162,50.3754,82.9915,277.1253,-9.4386e-05,-1.79e-05,0.0,0 STARLINK-4059,1 53250U 22086J   23314.58822862 -.00001790  00000-0 -94386-4 0  9990,2 53250  53.2162  50.3754 0001543  82.9915 277.1253 15.08849695 72749,6917.851,95.437,540.783,538.648,0.0
53250.0,STARLINK-4059,PAYLOAD,2023-11-11 12:22:27,15.08846429,0.0001448,53.2177,46.2116,85.6746,274.4412,1.6548e-05,-2.5e-07,0.0,0 STARLINK-4059,1 53250U 22086J   23315.51559317 -.00000025  00000-0  16548-4 0  9999,2 53250  53.2177  46.2116 0001448  85.6746 274.4412 15.08846429 72689,6917.861,95.437,540.727,538.724,0.0
53250.0,STARLINK-4059,PAYLOAD,2023-11-11 13:57:50,15.08848358,0.0001429,53.2177,45.9143,82.1096,278.0058,1.6428e-05,-2.6e-07,0.0,0 STARLINK-4059,1 53250U 22086J   23315.58183153 -.00000026  00000-0  16428-4 0  9995,2 53250  53.2177  45.9143 0001429  82.1096 278.0058 15.08848358 72896,6917.855,95.437,540.708,538.731,0.0
53250.0,STARLINK-4059,PAYLOAD,2023-11-11 15:33:13,15.08850539,0.000144,53.2176,45.6168,81.7346,278.3809,3.7814e-05,3.14e-06,0.0,0 STARLINK-4059,1 53250U 22086J   23315.64806942  .00000314  00000-0  37814-4 0  9991,2 53250  53.2176  45.6168 0001440  81.7346 278.3809 15.08850539 72908,6917.848,95.437,540.709,538.717,0.0
53250.0,STARLINK-4059,PAYLOAD,2023-11-12 10:37:51,15.08838585,0.000143,53.2175,42.0501,83.6595,276.456,0.0001103,1.468e-05,0.0,0 STARLINK-4059,1 53250U 22086J   23316.44295480  .00001468  00000-0  11030-3 0  9991,2 53250  53.2175  42.0501 0001430  83.6595 276.4560 15.08838585 72826,6917.885,95.438,540.739,538.76,0.0
53250.0,STARLINK-4059,PAYLOAD,2023-11-12 12:13:14,15.0884353,0.0001391,53.2177,41.7518,90.8703,269.2448,0.00010198,1.336e-05,0.0,0 STARLINK-4059,1 53250U 22086J   23316.50919148  .00001336  00000-0  10198-3 0  9990,2 53250  53.2177  41.7518 0001391  90.8703 269.2448 15.08843530 73034,6917.87,95.437,540.697,538.772,0.0
53250.0,STARLINK-4059,PAYLOAD,2023-11-12 23:20:55,15.08852727,0.0001494,53.2182,39.6708,88.2577,271.8586,4.1394e-05,3.71e-06,0.0,0 STARLINK-4059,1 53250U 22086J   23316.97286489  .00000371  00000-0  41394-4 0  9997,2 53250  53.2182  39.6708 0001494  88.2577 271.8586 15.08852727 72906,6917.841,95.437,540.74,538.673,0.0
53250.0,STARLINK-4059,PAYLOAD,2023-11-13 12:04:00,15.08852882,0.0001467,53.2181,37.2905,89.3509,270.7652,0.00018225,2.615e-05,0.0,0 STARLINK-4059,1 53250U 22086J   23317.50278151  .00002615  00000-0  18225-3 0  9993,2 53250  53.2181  37.2905 0001467  89.3509 270.7652 15.08852882 73180,6917.841,95.437,540.721,538.691,0.0
53250.0,STARLINK-4059,PAYLOAD,2023-11-14 11:54:48,15.08836631,0.000149,53.2194,32.8299,96.7045,263.4116,-3.9665e-05,-9.19e-06,0.0,0 STARLINK-4059,1 53250U 22086J   23318.49639697 -.00000919  00000-0 -39665-4 0  9997,2 53250  53.2194  32.8299 0001490  96.7045 263.4116 15.08836631 73137,6917.891,95.438,540.786,538.725,0.0
